SPACEMOBILE-003         
1 61045U 24163A   26199.17082198  .00001268  00000+0  71565-4 0  9999
2 61045  52.9670 166.9598 0004461 203.3197 156.7595 15.20713856102482
SPACEMOBILE-005         
1 61046U 24163B   26199.28569049  .00002152  00000+0  11126-3 0  9996
2 61046  52.9757 166.3840 0008560 205.2960 154.7616 15.20722937102499
SPACEMOBILE-001         
1 61047U 24163C   26199.28402451 -.00000022  00000+0  13735-4 0  9994
2 61047  52.9715 166.1008 0007095 203.8926 156.1740 15.20703424102490
SPACEMOBILE-002         
1 61048U 24163D   26199.26788476 -.00009691  00000+0 -42132-3 0  9991
2 61048  52.9785 166.2157 0005413 203.1224 156.9528 15.20679207102493
SPACEMOBILE-004         
1 61049U 24163E   26199.31610674  .00010492  00000+0  48447-3 0  9996
2 61049  52.9719 165.7693 0005789 237.6341 122.4093 15.20746753102506
SPACEMOBILE-006         
1 67232U 25309A   26199.36977421  .00001388  00000+0  81418-4 0  9990
2 67232  52.9937 188.7910 0009785 226.0321 133.9866 15.18663329 31336
SPACEMOBILE-008         
1 69589U 26139A   26199.78643541  .00000349  00000+0  36628-4 0  9997
2 69589  52.9950 119.1028 0005195  64.9472 295.2057 15.12805085  4765
SPACEMOBILE-009         
1 69590U 26139B   26199.78865073  .00000328  00000+0  35561-4 0  9997
2 69590  52.9941 119.1107 0005443  61.2523 298.9014 15.12698470  4769
SPACEMOBILE-010         
1 69591U 26139C   26199.79215350  .00001057  00000+0  76987-4 0  9993
2 69591  52.9947 119.1356 0005439  53.7113 306.4379 15.12537049  4772
